NORAD_CAT_ID,OBJECT_NAME,OBJECT_TYPE,EPOCH,MEAN_MOTION,ECCENTRICITY,INCLINATION,RA_OF_ASC_NODE,ARG_OF_PERICENTER,MEAN_ANOMALY,BSTAR,MEAN_MOTION_DOT,MEAN_MOTION_DDOT,TLE_LINE0,TLE_LINE1,TLE_LINE2,SEMIMAJOR_AXIS,PERIOD,APOGEE,PERIGEE,DECAYED
52352.0,STARLINK-3838,PAYLOAD,2022-05-04 18:00:02,15.83789358,0.0001142,53.2177,52.3993,56.3929,358.4619,-0.0042763,-0.00876445,0.0,0 STARLINK-3838,1 52352U 22045X   22124.75002315 -.00876445  00000-0 -42763-2 0  9994,2 52352  53.2177  52.3993 0001142  56.3929 358.4619 15.83789358  3317,6697.873000000001,90.921,320.503,318.973,0.0
52352.0,STARLINK-3838,PAYLOAD,2022-05-05 14:00:01,15.82215152,0.0001138,53.2174,48.2158,58.2768,68.2647,-0.0045943999999999,-0.00873965,0.0,0 STARLINK-3838,1 52352U 22045X   22125.58334491 -.00873965  00000-0 -45944-2 0  9997,2 52352  53.2174  48.2158 0001138  58.2768  68.2647 15.82215152  3444,6702.315,91.012,324.942,323.4170000000001,0.0
52352.0,STARLINK-3838,PAYLOAD,2022-05-05 22:00:00,15.81588169,0.0001264999999999,53.2176,46.5456,63.1471,162.7708,-0.0047542,-0.00877742,0.0,0 STARLINK-3838,1 52352U 22045X   22125.91667824 -.00877742  00000-0 -47542-2 0  9996,2 52352  53.2176  46.5456 0001265  63.1471 162.7708 15.81588169  1463,6704.0859999999975,91.048,326.7990000000001,325.103,0.0
52352.0,STARLINK-3838,PAYLOAD,2022-05-06 08:00:01,15.80713513,0.0001153,53.2163,44.4606,68.4005,10.7192,-0.0042269,-0.00759656,0.0,0 STARLINK-3838,1 52352U 22045X   22126.33334491 -.00759656  00000-0 -42269-2 0  9998,2 52352  53.2163  44.4606 0001153  68.4005  10.7192 15.80713513  3564,6706.559,91.098,329.19699999999995,327.65,0.0
52352.0,STARLINK-3838,PAYLOAD,2022-05-06 14:00:01,15.8032734,0.0001019,53.2176,43.2077,65.5716,356.8343,-0.005017,-0.00873754,0.0,0 STARLINK-3838,1 52352U 22045X   22126.58334491 -.00873754  00000-0 -50170-2 0  9991,2 52352  53.2176  43.2077 0001019  65.5716 356.8343 15.80327340  1575,6707.651,91.12,330.2,328.833,0.0
52352.0,STARLINK-3838,PAYLOAD,2022-05-06 22:00:00,15.79698721,0.0001262999999999,53.2177,41.5422,59.0633,100.451,-0.0051698,-0.00874624,0.0,0 STARLINK-3838,1 52352U 22045X   22126.91667824 -.00874624  00000-0 -51698-2 0  9990,2 52352  53.2177  41.5422 0001263  59.0633 100.4510 15.79698721  3650,6709.431,91.157,332.14300000000014,330.4480000000001,0.0
52352.0,STARLINK-3838,PAYLOAD,2022-05-07 14:00:01,15.78439195,9.44e-05,53.2173,38.2135,77.1574,274.3075,-0.0054646999999999,-0.00872865,0.0,0 STARLINK-3838,1 52352U 22045X   22127.58334491 -.00872865  00000-0 -54647-2 0  9997,2 52352  53.2173  38.2135 0000944  77.1574 274.3075 15.78439195  1731,6712.999,91.229,335.4980000000001,334.231,0.0
52352.0,STARLINK-3838,PAYLOAD,2022-05-07 20:00:01,15.77971436,0.0001042,53.2175,36.9675,69.4348,263.2289,-0.0056251,-0.00879021,0.0,0 STARLINK-3838,1 52352U 22045X   22127.83334491 -.00879021  00000-0 -56251-2 0  9999,2 52352  53.2175  36.9675 0001042  69.4348 263.2289 15.77971436  3790,6714.326,91.256,336.891,335.491,0.0
52352.0,STARLINK-3838,PAYLOAD,2022-05-07 22:00:00,15.77811709,0.0001153,53.2174,36.553,58.3813,27.9222,-0.0056398,-0.00875401,0.0,0 STARLINK-3838,1 52352U 22045X   22127.91667824 -.00875401  00000-0 -56398-2 0  9997,2 52352  53.2174  36.5530 0001153  58.3813  27.9222 15.77811709  1787,6714.779,91.266,337.418,335.87,0.0
52352.0,STARLINK-3838,PAYLOAD,2022-05-08 14:00:01,15.76551849,0.0001072,53.2175,33.2331,83.53399999999998,190.1829,-0.0059488,-0.00872851,0.0,0 STARLINK-3838,1 52352U 22045X   22128.58334491 -.00872851  00000-0 -59488-2 0  9991,2 52352  53.2175  33.2331 0001072  83.5340 190.1829 15.76551849  1888,6718.356,91.339,340.941,339.501,0.0
52352.0,STARLINK-3838,PAYLOAD,2022-05-08 20:00:01,15.7608167,0.000117,53.2178,31.991,75.3863,177.8292,-0.0060942,-0.00875431,0.0,0 STARLINK-3838,1 52352U 22045X   22128.83334491 -.00875431  00000-0 -60942-2 0  9993,2 52352  53.2178  31.9910 0001170  75.3863 177.8292 15.76081670  3953,6719.691999999999,91.366,342.343,340.771,0.0
52352.0,STARLINK-3838,PAYLOAD,2022-05-08 22:00:00,15.75924993,0.0001052,53.2177,31.5775,66.8156,299.4713,-0.006147,-0.0087672,0.0,0 STARLINK-3838,1 52352U 22045X   22128.91667824 -.00876720  00000-0 -61470-2 0  9990,2 52352  53.2177  31.5775 0001052  66.8156 299.4713 15.75924993  1945,6720.137,91.375,342.709,341.295,0.0
52352.0,STARLINK-3838,PAYLOAD,2022-05-09 14:00:01,15.74664205,0.0001155,53.2171,28.2667,79.4555,109.7737,-0.0064638,-0.00872555,0.0,0 STARLINK-3838,1 52352U 22045X   22129.58335648 -.00872555  00000-0 -64638-2 0  9991,2 52352  53.2171  28.2667 0001155  79.4555 109.7737 15.74664205  2046,6723.724,91.448,346.365,344.81199999999984,0.0
52352.0,STARLINK-3838,PAYLOAD,2022-05-09 22:00:00,15.74026193,0.0001153,53.2173,26.6159,83.1462,196.3216,-0.0064976,-0.00854857,0.0,0 STARLINK-3838,1 52352U 22045X   22129.91667824 -.00854857  00000-0 -64976-2 0  9992,2 52352  53.2173  26.6159 0001153  83.1462 196.3216 15.74026193  2102,6725.541,91.485,348.181,346.63,0.0
52352.0,STARLINK-3838,PAYLOAD,2022-05-10 00:00:00,15.73823749,0.0001024,53.2173,26.2035,76.9394,314.9943,-0.005645,-0.00745915,0.0,0 STARLINK-3838,1 52352U 22045X   22130.00001157 -.00745915  00000-0 -56450-2 0  9997,2 52352  53.2173  26.2035 0001024  76.9394 314.9943 15.73823749  4133,6726.1169999999975,91.497,348.671,347.2940000000001,0.0
52352.0,STARLINK-3838,PAYLOAD,2022-05-10 08:00:01,15.73207709,0.0001076,53.2173,24.5524,104.8649,16.4195,-4.7834e-05,-7.329e-05,0.0,0 STARLINK-3838,1 52352U 22045X   22130.33334491 -.00007329  00000-0 -47834-4 0  9991,2 52352  53.2173  24.5524 0001076 104.8649  16.4195 15.73207709  4199,6727.873000000001,91.533,350.462,349.014,0.0
52352.0,STARLINK-3838,PAYLOAD,2022-05-10 14:00:01,15.73205595,0.0001044,53.2173,23.3139,88.4626,9.5238,-1.9797e-05,-3.397e-05,0.0,0 STARLINK-3838,1 52352U 22045X   22130.58334491 -.00003397  00000-0 -19797-4 0  9996,2 52352  53.2173  23.3139 0001044  88.4626   9.5238 15.73205595  2207,6727.879,91.533,350.44699999999995,349.042,0.0
52352.0,STARLINK-3838,PAYLOAD,2022-05-10 18:00:00,15.73260908,9.77e-05,53.2137,22.4924,93.7062,228.9101,-0.00026585,-0.00037858,0.0,0 STARLINK-3838,1 52352U 22045X   22130.75001157 -.00037858  00000-0 -26585-3 0  9996,2 52352  53.2137  22.4924 0000977  93.7062 228.9101 15.73260908  4258,6727.722,91.53,350.244,348.92900000000014,0.0
52352.0,STARLINK-3838,PAYLOAD,2022-05-11 22:00:00,15.73195461,0.0001264,53.2132,16.7205,88.7287,5.1402,0.00014336,0.00019542,0.0,0 STARLINK-3838,1 52352U 22045X   22131.91667824  .00019542  00000-0  14336-3 0  9993,2 52352  53.2132  16.7205 0001264  88.7287   5.1402 15.73195461  4445,6727.908,91.533,350.624,348.923,0.0
52352.0,STARLINK-3838,PAYLOAD,2022-05-12 04:00:00,15.73198885,0.0001149,53.2132,15.4836,83.3485,347.2265,0.00065661,0.00092547,0.0,0 STARLINK-3838,1 52352U 22045X   22132.16667824  .00092547  00000-0  65661-3 0  9994,2 52352  53.2132  15.4836 0001149  83.3485 347.2265 15.73198885  4488,6727.898,91.533,350.536,348.99,0.0
52352.0,STARLINK-3838,PAYLOAD,2022-05-12 14:00:01,15.7326358,0.0001041,53.2134,13.4191,98.4257,173.386,-0.00041195,-0.00058191,0.0,0 STARLINK-3838,1 52352U 22045X   22132.58334491 -.00058191  00000-0 -41195-3 0  9996,2 52352  53.2134  13.4191 0001041  98.4257 173.3860 15.73263580  1309,6727.714,91.529,350.279,348.879,0.0
52352.0,STARLINK-3838,PAYLOAD,2022-05-12 20:00:01,15.73290197,0.0001043,53.2135,12.1834,90.5279,157.9435,-0.0006362,-0.00089305,0.0,0 STARLINK-3838,1 52352U 22045X   22132.83334491 -.00089305  00000-0 -63620-3 0  9992,2 52352  53.2135  12.1834 0001043  90.5279 157.9435 15.73290197  4582,6727.638000000001,91.528,350.205,348.801,0.0
52352.0,STARLINK-3838,PAYLOAD,2022-05-12 22:00:00,15.73261139,0.0001063,53.2134,11.7714,86.6808,274.0503,-0.00035308,-0.00050007,0.0,0 STARLINK-3838,1 52352U 22045X   22132.91667824 -.00050007  00000-0 -35308-3 0  9999,2 52352  53.2134  11.7714 0001063  86.6808 274.0503 15.73261139  1318,6727.721,91.53,350.301,348.871,0.0
52352.0,STARLINK-3838,PAYLOAD,2022-05-13 14:00:01,15.73181887,9.78e-05,53.2128,8.4703,101.6746,76.9583,-3.6253e-05,-5.699e-05,0.0,0 STARLINK-3838,1 52352U 22045X   22133.58334491 -.00005699  00000-0 -36253-4 0  9992,2 52352  53.2128   8.4703 0000978 101.6746  76.9583 15.73181887  4709,6727.946999999999,91.534,350.47,349.154,0.0
52352.0,STARLINK-3838,PAYLOAD,2022-05-13 22:00:00,15.73185569,0.0001099,53.2129,6.8229,89.8596,177.6683,-2.7581e-06,-1.006e-05,0.0,0 STARLINK-3838,1 52352U 22045X   22133.91667824 -.00001006  00000-0 -27581-5 0  9991,2 52352  53.2129   6.8229 0001099  89.8596 177.6683 15.73185569  1304,6727.936,91.534,350.541,349.06199999999984,0.0
52352.0,STARLINK-3838,PAYLOAD,2022-05-14 14:00:01,15.73187961,0.0001186,53.2132,3.5217,98.7284,346.644,0.00068318,0.00096316,0.0,0 STARLINK-3838,1 52352U 22045X   22134.58334491  .00096316  00000-0  68318-3 0  9993,2 52352  53.2132   3.5217 0001186  98.7284 346.6440 15.73187961  4860,6727.929,91.534,350.592,348.997,0.0
52352.0,STARLINK-3838,PAYLOAD,2022-05-14 22:00:00,15.73272744,0.0001067,53.2129,1.874,86.2943,88.0457,-0.00040448,-0.00057176,0.0,0 STARLINK-3838,1 52352U 22045X   22134.91667824 -.00057176  00000-0 -40448-3 0  9996,2 52352  53.2129   1.8740 0001067  86.2943  88.0457 15.73272744  1305,6727.688,91.529,350.271,348.835,0.0
52352.0,STARLINK-3838,PAYLOAD,2022-05-15 06:00:00,15.732748,9.06e-05,53.2122,0.2237,88.8238,174.4864,-0.00073299,-0.00102568,0.0,0 STARLINK-3838,1 52352U 22045X   22135.25001157 -.00102568  00000-0 -73299-3 0  9991,2 52352  53.2122   0.2237 0000906  88.8238 174.4864 15.73274800  4960,6727.682,91.529,350.156,348.93699999999984,0.0
52352.0,STARLINK-3838,PAYLOAD,2022-05-15 14:00:01,15.73206588,9.71e-05,53.2124,358.5724,104.2191,248.1367,-0.00030741,-0.0004355,0.0,0 STARLINK-3838,1 52352U 22045X   22135.58335648 -.00043550  00000-0 -30741-3 0  9992,2 52352  53.2124 358.5724 0000971 104.2191 248.1367 15.73206588  1305,6727.876,91.533,350.395,349.088,0.0
